{
  "type": "FeatureCollection",
  "name": "rue_dangereuses_velo_EPSG_2056_arrondis",
  "features": [
    {
      "type": "Feature",
      "properties": {
        "id": 1,
        "NAME": "carrefour_parc_trembley",
        "Qualification": "pneu creuve"
      },
      "geometry": {
        "type": "MultiPolygon",
        "coordinates": [
          [
            [
              [
                6.127286753059377,
                46.21675014284541
              ],
              [
                6.127223711477263,
                46.216781911111
              ],
              [
                6.1271771169554485,
                46.216825248248796
              ],
              [
                6.127151179027006,
                46.21687623905071
              ],
              [
                6.127148241068251,
                46.216930276841765
              ],
              [
                6.127168568571488,
                46.216982479658355
              ],
              [
                6.127543585618976,
                46.21757355990343
              ],
              [
                6.127592781231936,
                46.217624890012516
              ],
              [
                6.127664053747941,
                46.21766167709842
              ],
              [
                6.1277490336749825,
                46.21767960125586
              ],
              [
                6.1278377418196035,
                46.21767655764912
              ],
              [
                6.127919761171167,
                46.21765290368938
              ],
              [
                6.130551786253749,
                46.21649218261845
              ],
              [
                6.130567491315778,
                46.216487352655456
              ],
              [
                6.130579769528834,
                46.21649569149887
              ],
              [
                6.132091088571631,
                46.21788319203688
              ],
              [
                6.1321471610715514,
                46.21792107500995
              ],
              [
                6.132216965613918,
                46.21794561562104
              ],
              [
                6.132294140040315,
                46.217954577173295
              ],
              [
                6.132371650463101,
                46.21794714288616
              ],
              [
                6.132442432370106,
                46.217923990341056
              ],
              [
                6.132500034520902,
                46.21788722972303
              ],
              [
                6.132850701230322,
                46.2175836512611
              ],
              [
                6.132890655622283,
                46.217535226659486
              ],
              [
                6.132907311488808,
                46.217480633051
              ],
              [
                6.132899066433182,
                46.21742512290626
              ],
              [
                6.132866713785386,
                46.217374036860434
              ],
              [
                6.1316482356009,
                46.216054106463986
              ],
              [
                6.131640967766604,
                46.21604227898523
              ],
              [
                6.131655820129504,
                46.216034594886544
              ],
              [
                6.133774380579542,
                46.21528048565024
              ],
              [
                6.1338414574716085,
                46.2152461559185
              ],
              [
                6.133889371627305,
                46.21519882323232
              ],
              [
                6.1339131690110245,
                46.21514338156075
              ],
              [
                6.133910389170806,
                46.21508556328657
              ],
              [
                6.133881319608239,
                46.21503134650303
              ],
              [
                6.133495187570696,
                46.21456078185834
              ],
              [
                6.133445526130525,
                46.214517468030714
              ],
              [
                6.133379245386366,
                46.21448668611259
              ],
              [
                6.13330262071413,
                46.21447135048615
              ],
              [
                6.133222906810527,
                46.21447291310192
              ],
              [
                6.1331476508470795,
                46.214491226014154
              ],
              [
                6.1311115759025725,
                46.21524804172243
              ],
              [
                6.131093853883897,
                46.21525215249965
              ],
              [
                6.131084240718004,
                46.21524102993448
              ],
              [
                6.130370811643235,
                46.213969010013095
              ],
              [
                6.130332954574161,
                46.21392300971924
              ],
              [
                6.1302774388672745,
                46.213886658149455
              ],
              [
                6.130209078371504,
                46.21386310738246
              ],
              [
                6.130133800692787,
                46.213854399524116
              ],
              [
                6.130058133215131,
                46.21386128963914
              ],
              [
                6.129988637121317,
                46.213883180280675
              ],
              [
                6.129361171560129,
                46.214164675631764
              ],
              [
                6.12929488697728,
                46.21420748125657
              ],
              [
                6.12925385506614,
                46.21426350175111
              ],
              [
                6.129243082713361,
                46.21432590137085
              ],
              [
                6.129263884491313,
                46.21438706595243
              ],
              [
                6.130096681969415,
                46.21572666810067
              ],
              [
                6.130101077756633,
                46.21573826443963
              ],
              [
                6.130087091699726,
                46.21574530196747
              ],
              [
                6.127286753059377,
                46.21675014284541
              ]
            ]
          ]
        ]
      }
    },
    {
      "type": "Feature",
      "properties": {
        "id": 2,
        "NAME": "perle_du_lac",
        "Qualification": "pneu creuve"
      },
      "geometry": {
        "type": "MultiPolygon",
        "coordinates": [
          [
            [
              [
                6.145594221327997,
                46.219098701357986
              ],
              [
                6.145522137446898,
                46.21913069798498
              ],
              [
                6.145468989436014,
                46.21917724210391
              ],
              [
                6.1454405691799066,
                46.219233261546584
              ],
              [
                6.145439973876538,
                46.219292651550084
              ],
              [
                6.145739400155323,
                46.220589927940864
              ],
              [
                6.145762262824558,
                46.22064018405288
              ],
              [
                6.145805125358956,
                46.220683685385694
              ],
              [
                6.145864309734257,
                46.22071669905685
              ],
              [
                6.145934737308315,
                46.220736392132316
              ],
              [
                6.1460103646253526,
                46.22074107472846
              ],
              [
                6.146084702021742,
                46.22073034502647
              ],
              [
                6.149438578153437,
                46.21987517497781
              ],
              [
                6.149516318422563,
                46.21984381920652
              ],
              [
                6.149573948422032,
                46.219795915003104
              ],
              [
                6.152221229015849,
                46.216596918803674
              ],
              [
                6.15225104102856,
                46.21654114456854
              ],
              [
                6.152253021061689,
                46.21648167077915
              ],
              [
                6.152226952712667,
                46.21642500011886
              ],
              [
                6.152175686286882,
                46.21637732876619
              ],
              [
                6.151011546326237,
                46.215603943614234
              ],
              [
                6.1509483247398675,
                46.2155730279192
              ],
              [
                6.1508747775049635,
                46.215556437068564
              ],
              [
                6.150797452737704,
                46.2155556481907
              ],
              [
                6.150723234868748,
                46.215570731521524
              ],
              [
                6.15065873172093,
                46.21560034415132
              ],
              [
                6.150609686210789,
                46.21564184958438
              ],
              [
                6.148351480210471,
                46.218273306914
              ],
              [
                6.1483388659749485,
                46.218283811652526
              ],
              [
                6.14832218186992,
                46.21829108459852
              ],
              [
                6.145594221327997,
                46.219098701357986
              ]
            ]
          ]
        ]
      }
    },
    {
      "type": "Feature",
      "properties": {
        "id": 3,
        "NAME": "pont_coulouvreniere",
        "Qualification": "pneu creuve"
      },
      "geometry": {
        "type": "MultiPolygon",
        "coordinates": [
          [
            [
              [
                6.139072539790972,
                46.205980669138874
              ],
              [
                6.139077633278828,
                46.2060320327195
              ],
              [
                6.139103471070432,
                46.206080291517154
              ],
              [
                6.1391479372650215,
                46.20612149344149
              ],
              [
                6.13920739039098,
                46.20615226430746
              ],
              [
                6.139276961613042,
                46.206170084164754
              ],
              [
                6.140070009334773,
                46.20628735292296
              ],
              [
                6.140157917522185,
                46.20628975032262
              ],
              [
                6.140241914619847,
                46.206271588707835
              ],
              [
                6.140312318596764,
                46.20623496150183
              ],
              [
                6.140361014289028,
                46.20618409058313
              ],
              [
                6.140382388808781,
                46.206124839635166
              ],
              [
                6.140733239255095,
                46.20287565973817
              ],
              [
                6.140728145408605,
                46.20282429534781
              ],
              [
                6.140702307895254,
                46.20277603598011
              ],
              [
                6.140657842750672,
                46.202734833876086
              ],
              [
                6.140598391513351,
                46.202704063308275
              ],
              [
                6.140528822991588,
                46.20268624424698
              ],
              [
                6.139735752823168,
                46.20256897243096
              ],
              [
                6.139647850230844,
                46.202566575230264
              ],
              [
                6.139563858541244,
                46.20258473708646
              ],
              [
                6.139493459093113,
                46.20262136456713
              ],
              [
                6.139444766548468,
                46.20267223578735
              ],
              [
                6.139423393556973,
                46.202731487036864
              ],
              [
                6.139072539790972,
                46.205980669138874
              ]
            ]
          ]
        ]
      }
    },
    {
      "type": "Feature",
      "properties": {
        "id": 4,
        "NAME": "rue_des_deux_pont",
        "Qualification": "pneu creuve"
      },
      "geometry": {
        "type": "MultiPolygon",
        "coordinates": [
          [
            [
              [
                6.128232075343978,
                46.19981980052288
              ],
              [
                6.128196447394976,
                46.19986847300139
              ],
              [
                6.128183486050864,
                46.199922324972896
              ],
              [
                6.128194385094964,
                46.19997639676777
              ],
              [
                6.128228140809509,
                46.20002570845671
              ],
              [
                6.131172470438617,
                46.20303942505857
              ],
              [
                6.131229215819817,
                46.20308118561354
              ],
              [
                6.131302019476698,
                46.20310840725877
              ],
              [
                6.13138346709754,
                46.20311831773982
              ],
              [
                6.131465264044959,
                46.20310990777156
              ],
              [
                6.131539080105046,
                46.20308403382669
              ],
              [
                6.131597397860159,
                46.203043330909985
              ],
              [
                6.132091673970517,
                46.20256518924476
              ],
              [
                6.1321273021862845,
                46.20251651519158
              ],
              [
                6.132140261591498,
                46.20246266197712
              ],
              [
                6.132129358671056,
                46.202408589568755
              ],
              [
                6.13209559766598,
                46.20235927810758
              ],
              [
                6.129151247156719,
                46.199345569532234
              ],
              [
                6.129094506535091,
                46.19930380745476
              ],
              [
                6.129021708002747,
                46.19927658428774
              ],
              [
                6.128940265443248,
                46.199266672462
              ],
              [
                6.1288584730316265,
                46.19927508140541
              ],
              [
                6.128784660571058,
                46.199300954744814
              ],
              [
                6.128726345201716,
                46.199341657517266
              ],
              [
                6.128232075343978,
                46.19981980052288
              ]
            ]
          ]
        ]
      }
    },
    {
      "type": "Feature",
      "properties": {
        "id": 5,
        "NAME": "rue_du_college",
        "Qualification": "rustine d'or"
      },
      "geometry": {
        "type": "MultiPolygon",
        "coordinates": [
          [
            [
              [
                6.137577498326372,
                46.183360381417
              ],
              [
                6.137586839904867,
                46.183413345369885
              ],
              [
                6.1376181364840665,
                46.183462076629965
              ],
              [
                6.137668635063129,
                46.18350228847264
              ],
              [
                6.137733893478437,
                46.18353044358926
              ],
              [
                6.137808171161176,
                46.18354406525875
              ],
              [
                6.141725262092249,
                46.18384253861455
              ],
              [
                6.141810375888191,
                46.18383922047463
              ],
              [
                6.141889329225052,
                46.18381689056034
              ],
              [
                6.141953570098099,
                46.18377796758912
              ],
              [
                6.141996140154367,
                46.183726667587706
              ],
              [
                6.14201242840147,
                46.18366854721464
              ],
              [
                6.142037328957679,
                46.18302676430524
              ],
              [
                6.142027986558314,
                46.18297379838819
              ],
              [
                6.141996687817999,
                46.18292506566715
              ],
              [
                6.1419461862226585,
                46.182884853287355
              ],
              [
                6.141880924556077,
                46.182856698828815
              ],
              [
                6.1418066440520045,
                46.182843079102554
              ],
              [
                6.137889573238248,
                46.18254460869449
              ],
              [
                6.137804458507821,
                46.18254792439256
              ],
              [
                6.137725503352121,
                46.18257025314072
              ],
              [
                6.137661260402012,
                46.18260917623356
              ],
              [
                6.137618688662235,
                46.182660477418274
              ],
              [
                6.137602399693128,
                46.18271859960085
              ],
              [
                6.137577498326372,
                46.183360381417
              ]
            ]
          ]
        ]
      }
    },
    {
      "type": "Feature",
      "properties": {
        "id": 6,
        "NAME": "rue_du_rhone",
        "Qualification": "rustine d'or"
      },
      "geometry": {
        "type": "MultiPolygon",
        "coordinates": [
          [
            [
              [
                6.143970277361686,
                46.20364693076585
              ],
              [
                6.143884387744346,
                46.20364413078981
              ],
              [
                6.143801907340108,
                46.203660999894346
              ],
              [
                6.143731918482411,
                46.203695680538736
              ],
              [
                6.143682128032027,
                46.20374435386009
              ],
              [
                6.1436580187411804,
                46.203801660178534
              ],
              [
                6.14347692485923,
                46.204866706713496
              ],
              [
                6.14347924365536,
                46.204919700951216
              ],
              [
                6.143503709204816,
                46.20496992477443
              ],
              [
                6.1435481968587045,
                46.20501301650558
              ],
              [
                6.143608843128053,
                46.20504523384281
              ],
              [
                6.1436803811997684,
                46.2050637788654
              ],
              [
                6.14600649911584,
                46.20540706436921
              ],
              [
                6.146075243123686,
                46.205410698641025
              ],
              [
                6.146142934274967,
                46.20540161817423
              ],
              [
                6.156245195748669,
                46.20304329135967
              ],
              [
                6.156310630123719,
                46.20302042718728
              ],
              [
                6.1563642336102795,
                46.202985761311766
              ],
              [
                6.156401722031102,
                46.20294206436739
              ],
              [
                6.156420099210487,
                46.20289282877996
              ],
              [
                6.156417896430515,
                46.202841989634734
              ],
              [
                6.156177435654996,
                46.201880314511385
              ],
              [
                6.15614772332077,
                46.2018225712454
              ],
              [
                6.156091807808971,
                46.20177511037033
              ],
              [
                6.156016184374376,
                46.20174344498474
              ],
              [
                6.155929637511691,
                46.201731253360975
              ],
              [
                6.1558422205547805,
                46.201739951684544
              ],
              [
                6.1460241473912625,
                46.203950134868
              ],
              [
                6.146007771982806,
                46.203952223788065
              ],
              [
                6.145991178196612,
                46.20395127898694
              ],
              [
                6.143970277361686,
                46.20364693076585
              ]
            ]
          ]
        ]
      }
    },
    {
      "type": "Feature",
      "properties": {
        "id": 7,
        "NAME": "jardin_anglais",
        "Qualification": "pneu creuve"
      },
      "geometry": {
        "type": "MultiPolygon",
        "coordinates": [
          [
            [
              [
                6.149996524142342,
                46.20567396504212
              ],
              [
                6.150069831906538,
                46.205706002649066
              ],
              [
                6.1501542519363035,
                46.205719475238894
              ],
              [
                6.150240350576851,
                46.2057128772941
              ],
              [
                6.15031850658886,
                46.20568694611341
              ],
              [
                6.150379986319034,
                46.205644579418696
              ],
              [
                6.151092486416715,
                46.204953415325484
              ],
              [
                6.151106021681326,
                46.20494383264663
              ],
              [
                6.151123112078631,
                46.204937560401554
              ],
              [
                6.1533599776645165,
                46.20440242078231
              ],
              [
                6.15337909552443,
                46.20440011606013
              ],
              [
                6.15339641484571,
                46.20440619091199
              ],
              [
                6.155476173295114,
                46.20545394215473
              ],
              [
                6.155555376986814,
                46.205480953514545
              ],
              [
                6.155643043219869,
                46.20548794515682
              ],
              [
                6.155729005363191,
                46.205474106262415
              ],
              [
                6.155803294413988,
                46.20544104172437
              ],
              [
                6.155857295128728,
                46.20539258602401
              ],
              [
                6.156615377958714,
                46.20439963725246
              ],
              [
                6.156640794544057,
                46.204349699576035
              ],
              [
                6.156644166821916,
                46.2042967872809
              ],
              [
                6.156625202594145,
                46.204245486050205
              ],
              [
                6.156585545464055,
                46.20420024193064
              ],
              [
                6.156528632373685,
                46.20416497601619
              ],
              [
                6.1530867719037134,
                46.20259612627827
              ],
              [
                6.153019392854075,
                46.20257427586709
              ],
              [
                6.152945850534165,
                46.20256661353916
              ],
              [
                6.152872202647653,
                46.20257377044257
              ],
              [
                6.1502891967062885,
                46.20309539099317
              ],
              [
                6.150211600689947,
                46.20312142275958
              ],
              [
                6.150150592052448,
                46.20316368437727
              ],
              [
                6.148651075334674,
                46.20462359707371
              ],
              [
                6.148616684737324,
                46.204670204272674
              ],
              [
                6.148603081972857,
                46.2047217133289
              ],
              [
                6.148611419594797,
                46.20477376013609
              ],
              [
                6.14864099125608,
                46.204821935014735
              ],
              [
                6.148689291534719,
                46.20486215632448
              ],
              [
                6.149996524142342,
                46.20567396504212
              ]
            ]
          ]
        ]
      }
    }
  ]
}
